start=new Date('2022-10-03T00:00:00.000Z').valueOf();
sats=[{"NORAD_CAT_ID":"53867","OBJECT_TYPE":"PAYLOAD","COUNTRY_CODE":"US","OBJECT_NAME":"STARLINK-4793","RA_OF_ASC_NODE":"190.0896","APOAPSIS":"350.330","RCS_SIZE":"LARGE","PERIOD":"91.530","TLE_LINE2":"2 53867  53.2162 190.0896 0001086  91.4059  28.3476 15.73256302  1304","OBJECT_ID":"2022-114BB","REF_FRAME":"TEME","SITE":"AFETR","TIME_SYSTEM":"UTC","LAUNCH_DATE":"2022-09-19","DECAY_DATE":null,"MEAN_MOTION_DDOT":"0.0000000000000","SEMIMAJOR_AXIS":"6727.735","MEAN_ELEMENT_THEORY":"SGP4","BSTAR":"0.00006202500000","ELEMENT_SET_NO":"999","EPHEMERIS_TYPE":"0","EPOCH":"2022-10-02T22:00:00.999936","FILE":"3589751","TLE_LINE1":"1 53867U 22114BB  22275.91667824  .00008114  00000-0  62025-4 0  9993","ARG_OF_PERICENTER":"91.4059","MEAN_MOTION":"15.73256302","INCLINATION":"53.2162","CLASSIFICATION_TYPE":"U","MEAN_MOTION_DOT":"0.00008114","ECCENTRICITY":"0.00010860","GP_ID":"214051500","MEAN_ANOMALY":"28.3476","CENTER_NAME":"EARTH","PERIAPSIS":"348.869","REV_AT_EPOCH":"130"},{"GP_ID":"214026751","MEAN_ANOMALY":"11.9509","CENTER_NAME":"EARTH","PERIAPSIS":"347.527","REV_AT_EPOCH":"276","EPOCH":"2022-10-02T22:00:00.999936","ELEMENT_SET_NO":"999","EPHEMERIS_TYPE":"0","BSTAR":"0.00037458000000","TLE_LINE1":"1 53868U 22114BC  22275.91667824  .00053308  00000-0  37458-3 0  9990","ARG_OF_PERICENTER":"113.3912","FILE":"3589737","CLASSIFICATION_TYPE":"U","MEAN_MOTION_DOT":"0.00053308","INCLINATION":"53.2156","MEAN_MOTION":"15.73648580","ECCENTRICITY":"0.00014190","TLE_LINE2":"2 53868  53.2156 190.0834 0001419 113.3912  11.9509 15.73648580  2761","PERIOD":"91.507","REF_FRAME":"TEME","SITE":"AFETR","OBJECT_ID":"2022-114BC","LAUNCH_DATE":"2022-09-19","TIME_SYSTEM":"UTC","SEMIMAJOR_AXIS":"6726.617","MEAN_ELEMENT_THEORY":"SGP4","DECAY_DATE":null,"MEAN_MOTION_DDOT":"0.0000000000000","NORAD_CAT_ID":"53868","OBJECT_TYPE":"PAYLOAD","APOAPSIS":"349.436","RCS_SIZE":"LARGE","COUNTRY_CODE":"US","OBJECT_NAME":"STARLINK-4789","RA_OF_ASC_NODE":"190.0834"},{"BSTAR":"-0.00018033000000","ELEMENT_SET_NO":"999","EPHEMERIS_TYPE":"0","EPOCH":"2022-10-02T22:00:00.999936","FILE":"3589751","TLE_LINE1":"1 53869U 22114BD  22275.91667824 -.00025920  00000-0 -18033-3 0  9990","ARG_OF_PERICENTER":"68.8901","INCLINATION":"53.2149","MEAN_MOTION":"15.73265616","MEAN_MOTION_DOT":"-0.00025920","CLASSIFICATION_TYPE":"U","ECCENTRICITY":"0.00010130","GP_ID":"214051664","MEAN_ANOMALY":"51.4180","CENTER_NAME":"EARTH","PERIAPSIS":"348.892","REV_AT_EPOCH":"130","NORAD_CAT_ID":"53869","OBJECT_TYPE":"PAYLOAD","COUNTRY_CODE":"US","RA_OF_ASC_NODE":"190.0899","OBJECT_NAME":"STARLINK-4810","APOAPSIS":"350.255","RCS_SIZE":"LARGE","PERIOD":"91.529","TLE_LINE2":"2 53869  53.2149 190.0899 0001013  68.8901  51.4180 15.73265616  1305","OBJECT_ID":"2022-114BD","REF_FRAME":"TEME","SITE":"AFETR","TIME_SYSTEM":"UTC","LAUNCH_DATE":"2022-09-19","DECAY_DATE":null,"MEAN_MOTION_DDOT":"0.0000000000000","SEMIMAJOR_AXIS":"6727.708","MEAN_ELEMENT_THEORY":"SGP4"},{"GP_ID":"214052488","PERIAPSIS":"349.129","REV_AT_EPOCH":"130","MEAN_ANOMALY":"39.0909","CENTER_NAME":"EARTH","FILE":"3589751","TLE_LINE1":"1 53870U 22114BE  22275.91667824  .00028938  00000-0  20993-3 0  9990","ARG_OF_PERICENTER":"83.0441","BSTAR":"0.00020993000000","EPHEMERIS_TYPE":"0","ELEMENT_SET_NO":"999","EPOCH":"2022-10-02T22:00:00.999936","ECCENTRICITY":"0.00009570","INCLINATION":"53.2147","MEAN_MOTION":"15.73195578","MEAN_MOTION_DOT":"0.00028938","CLASSIFICATION_TYPE":"U","OBJECT_ID":"2022-114BE","REF_FRAME":"TEME","SITE":"AFETR","PERIOD":"91.533","TLE_LINE2":"2 53870  53.2147 190.0868 0000957  83.0441  39.0909 15.73195578  1305","DECAY_DATE":null,"MEAN_MOTION_DDOT":"0.0000000000000","MEAN_ELEMENT_THEORY":"SGP4","SEMIMAJOR_AXIS":"6727.908","TIME_SYSTEM":"UTC","LAUNCH_DATE":"2022-09-19","OBJECT_TYPE":"PAYLOAD","NORAD_CAT_ID":"53870","COUNTRY_CODE":"US","RA_OF_ASC_NODE":"190.0868","OBJECT_NAME":"STARLINK-4732","APOAPSIS":"350.417","RCS_SIZE":"LARGE"},{"NORAD_CAT_ID":"53871","OBJECT_TYPE":"PAYLOAD","OBJECT_NAME":"STARLINK-4740","RA_OF_ASC_NODE":"190.0849","COUNTRY_CODE":"US","RCS_SIZE":"LARGE","APOAPSIS":"350.794","PERIOD":"91.535","TLE_LINE2":"2 53871  53.2147 190.0849 0001435  88.3052  34.4202 15.73176018  1306","OBJECT_ID":"2022-114BF","SITE":"AFETR","REF_FRAME":"TEME","TIME_SYSTEM":"UTC","LAUNCH_DATE":"2022-09-19","MEAN_MOTION_DDOT":"0.0000000000000","DECAY_DATE":null,"SEMIMAJOR_AXIS":"6727.964","MEAN_ELEMENT_THEORY":"SGP4","BSTAR":"0.00038413000000","ELEMENT_SET_NO":"999","EPHEMERIS_TYPE":"0","EPOCH":"2022-10-02T22:00:00.999936","FILE":"3589751","ARG_OF_PERICENTER":"88.3052","TLE_LINE1":"1 53871U 22114BF  22275.91667824  .00053579  00000-0  38413-3 0  9996","MEAN_MOTION":"15.73176018","INCLINATION":"53.2147","MEAN_MOTION_DOT":"0.00053579","CLASSIFICATION_TYPE":"U","ECCENTRICITY":"0.00014350","GP_ID":"214051917","CENTER_NAME":"EARTH","MEAN_ANOMALY":"34.4202","REV_AT_EPOCH":"130","PERIAPSIS":"348.863"},{"ECCENTRICITY":"0.00098720","INCLINATION":"53.2187","MEAN_MOTION":"15.83268424","CLASSIFICATION_TYPE":"U","MEAN_MOTION_DOT":"-0.01290454","FILE":"3589751","ARG_OF_PERICENTER":"63.6464","TLE_LINE1":"1 53886U 22119A   22275.91667824 -.01290454  00000-0 -65780-2 0  9991","BSTAR":"-0.00657800000000","EPOCH":"2022-10-02T22:00:00.999936","ELEMENT_SET_NO":"999","EPHEMERIS_TYPE":"0","REV_AT_EPOCH":"130","PERIAPSIS":"314.593","CENTER_NAME":"EARTH","MEAN_ANOMALY":"111.3158","GP_ID":"214052400","OBJECT_NAME":"STARLINK-5028","RA_OF_ASC_NODE":"213.7833","COUNTRY_CODE":"US","RCS_SIZE":null,"APOAPSIS":"327.820","OBJECT_TYPE":"PAYLOAD","NORAD_CAT_ID":"53886","MEAN_MOTION_DDOT":"0.0000000000000","DECAY_DATE":null,"MEAN_ELEMENT_THEORY":"SGP4","SEMIMAJOR_AXIS":"6699.342","TIME_SYSTEM":"UTC","LAUNCH_DATE":"2022-09-24","OBJECT_ID":"2022-119A","SITE":"AFETR","REF_FRAME":"TEME","PERIOD":"90.951","TLE_LINE2":"2 53886  53.2187 213.7833 0009872  63.6464 111.3158 15.83268424  1307"},{"OBJECT_TYPE":"PAYLOAD","NORAD_CAT_ID":"53887","RCS_SIZE":null,"APOAPSIS":"327.875","OBJECT_NAME":"STARLINK-5029","RA_OF_ASC_NODE":"213.7802","COUNTRY_CODE":"US","SITE":"AFETR","REF_FRAME":"TEME","OBJECT_ID":"2022-119B","TLE_LINE2":"2 53887  53.2187 213.7802 0010145  63.4610 112.7094 15.83314004  1300","PERIOD":"90.948","MEAN_ELEMENT_THEORY":"SGP4","SEMIMAJOR_AXIS":"6699.213","MEAN_MOTION_DDOT":"0.0000000000000","DECAY_DATE":null,"LAUNCH_DATE":"2022-09-24","TIME_SYSTEM":"UTC","TLE_LINE1":"1 53887U 22119B   22275.91667824 -.01295873  00000-0 -65926-2 0  9994","ARG_OF_PERICENTER":"63.4610","FILE":"3589751","ELEMENT_SET_NO":"999","EPHEMERIS_TYPE":"0","EPOCH":"2022-10-02T22:00:00.999936","BSTAR":"-0.00659260000000","ECCENTRICITY":"0.00101450","CLASSIFICATION_TYPE":"U","MEAN_MOTION_DOT":"-0.01295873","INCLINATION":"53.2187","MEAN_MOTION":"15.83314004","GP_ID":"214051666","REV_AT_EPOCH":"130","PERIAPSIS":"314.282","CENTER_NAME":"EARTH","MEAN_ANOMALY":"112.7094"},{"PERIOD":"90.962","TLE_LINE2":"2 53888  53.2187 213.7823 0007323  86.4892  89.0125 15.83070000  1301","OBJECT_ID":"2022-119C","REF_FRAME":"TEME","SITE":"AFETR","TIME_SYSTEM":"UTC","LAUNCH_DATE":"2022-09-24","DECAY_DATE":null,"MEAN_MOTION_DDOT":"0.0000000000000","MEAN_ELEMENT_THEORY":"SGP4","SEMIMAJOR_AXIS":"6699.902","NORAD_CAT_ID":"53888","OBJECT_TYPE":"PAYLOAD","COUNTRY_CODE":"US","OBJECT_NAME":"STARLINK-5034","RA_OF_ASC_NODE":"213.7823","APOAPSIS":"326.673","RCS_SIZE":null,"GP_ID":"214052490","MEAN_ANOMALY":"89.0125","CENTER_NAME":"EARTH","PERIAPSIS":"316.860","REV_AT_EPOCH":"130","BSTAR":"-0.00508250000000","ELEMENT_SET_NO":"999","EPHEMERIS_TYPE":"0","EPOCH":"2022-10-02T22:00:00.999936","FILE":"3589751","ARG_OF_PERICENTER":"86.4892","TLE_LINE1":"1 53888U 22119C   22275.91667824 -.00996653  00000-0 -50825-2 0  9990","INCLINATION":"53.2187","MEAN_MOTION":"15.83070000","MEAN_MOTION_DOT":"-0.00996653","CLASSIFICATION_TYPE":"U","ECCENTRICITY":"0.00073230"},{"DECAY_DATE":null,"MEAN_MOTION_DDOT":"0.0000000000000","MEAN_ELEMENT_THEORY":"SGP4","SEMIMAJOR_AXIS":"6699.267","TIME_SYSTEM":"UTC","LAUNCH_DATE":"2022-09-24","OBJECT_ID":"2022-119D","REF_FRAME":"TEME","SITE":"AFETR","PERIOD":"90.950","TLE_LINE2":"2 53889  53.2188 213.7813 0009059  66.2466 109.5728 15.83294925  1304","COUNTRY_CODE":"US","OBJECT_NAME":"STARLINK-5031","RA_OF_ASC_NODE":"213.7813","APOAPSIS":"327.201","RCS_SIZE":null,"OBJECT_TYPE":"PAYLOAD","NORAD_CAT_ID":"53889","PERIAPSIS":"315.063","REV_AT_EPOCH":"130","MEAN_ANOMALY":"109.5728","CENTER_NAME":"EARTH","GP_ID":"214051919","ECCENTRICITY":"0.00090590","INCLINATION":"53.2188","MEAN_MOTION":"15.83294925","MEAN_MOTION_DOT":"-0.01293246","CLASSIFICATION_TYPE":"U","FILE":"3589751","ARG_OF_PERICENTER":"66.2466","TLE_LINE1":"1 53889U 22119D   22275.91667824 -.01293246  00000-0 -65921-2 0  9993","BSTAR":"-0.00659210000000","ELEMENT_SET_NO":"999","EPHEMERIS_TYPE":"0","EPOCH":"2022-10-02T22:00:00.999936"},{"APOAPSIS":"321.175","RCS_SIZE":null,"COUNTRY_CODE":"US","RA_OF_ASC_NODE":"213.6743","OBJECT_NAME":"STARLINK-5050","NORAD_CAT_ID":"53890","OBJECT_TYPE":"PAYLOAD","LAUNCH_DATE":"2022-09-24","TIME_SYSTEM":"UTC","MEAN_ELEMENT_THEORY":"SGP4","SEMIMAJOR_AXIS":"6672.425","DECAY_DATE":null,"MEAN_MOTION_DDOT":"0.0000329740000","TLE_LINE2":"2 53890  53.2239 213.6743 0040293  77.9193 153.9390 15.92858529  1309","PERIOD":"90.404","REF_FRAME":"TEME","SITE":"AFETR","OBJECT_ID":"2022-119E","CLASSIFICATION_TYPE":"U","MEAN_MOTION_DOT":"0.00240221","INCLINATION":"53.2239","MEAN_MOTION":"15.92858529","ECCENTRICITY":"0.00402930","EPHEMERIS_TYPE":"0","ELEMENT_SET_NO":"999","EPOCH":"2022-10-02T22:00:00.999936","BSTAR":"0.00063307000000","TLE_LINE1":"1 53890U 22119E   22275.91667824  .00240221  32974-4  63307-3 0  9993","ARG_OF_PERICENTER":"77.9193","FILE":"3589751","MEAN_ANOMALY":"153.9390","CENTER_NAME":"EARTH","PERIAPSIS":"267.405","REV_AT_EPOCH":"130","GP_ID":"214052657"}];
